ONEWEB-0564             
1 55801U 23029F   26197.60477580  .00000074  00000+0  14924-3 0  9990
2 55801  87.9175 268.5895 0001748  91.2069 268.9264 13.20772411165038
ONEWEB-0638             
1 55802U 23029G   26197.62229985  .00000246  00000+0  62952-3 0  9992
2 55802  87.8958 283.8845 0001472 104.3546 255.7747 13.14504227163266
ONEWEB-0639             
1 55803U 23029H   26197.52463241  .00000138  00000+0  31310-3 0  9991
2 55803  87.9187 299.1339 0002689 118.8202 241.3201 13.19726903162773
ONEWEB-0640             
1 55804U 23029J   26197.70793499  .00000085  00000+0  19534-3 0  9998
2 55804  87.8962 283.8586 0001621 117.6894 242.4400 13.14502587163293
ONEWEB-0641             
1 55805U 23029K   26197.29246125 -.00000748  00000+0 -19010-2 0  9998
2 55805  87.9194 299.1713 0002067 104.0666 256.0697 13.19717686162758
ONEWEB-0642             
1 55806U 23029L   26197.28772270  .00000051  00000+0  95744-4 0  9998
2 55806  87.9188 299.1822 0002702 112.9207 247.2211 13.19726758162741
ONEWEB-0643             
1 55807U 23029M   26197.52557477  .00000145  00000+0  35666-3 0  9996
2 55807  87.8955 283.8820 0002691 106.0521 254.0905 13.14502818163247
ONEWEB-0644             
1 55808U 23029N   26197.66207032  .00000015  00000+0  50823-5 0  9991
2 55808  87.9185 299.1087 0002309 105.7231 254.4156 13.19725893162795
ONEWEB-0645             
1 55809U 23029P   26197.53254782  .00000191  00000+0  44387-3 0  9993
2 55809  87.9184 299.1309 0002087 114.1639 245.9712 13.19726453162775
ONEWEB-0646             
1 55810U 23029Q   26197.32246222  .00000074  00000+0  15140-3 0  9997
2 55810  87.9186 299.1736 0002290 104.9453 255.1933 13.19727215162731
ONEWEB-0648             
1 55811U 23029R   26197.64608561 -.00000156  00000+0 -45579-3 0  9993
2 55811  87.8969 283.8345 0002434 121.2673 238.8695 13.14503115163260
ONEWEB-0649             
1 55812U 23029S   26197.72681267 -.00000050  00000+0 -15769-3 0  9998
2 55812  87.9185 299.0910 0002077 108.4727 251.6632 13.19726458162826
ONEWEB-0650             
1 55813U 23029T   26197.26717866 -.00000021  00000+0 -85898-4 0  9992
2 55813  87.9183 299.1849 0002516 110.9683 249.1719 13.19726257162739
ONEWEB-0652             
1 55814U 23029U   26197.47482464  .00000150  00000+0  36974-3 0  9990
2 55814  87.8969 283.8752 0001996  94.9146 265.2211 13.14502402163219
ONEWEB-0653             
1 55815U 23029V   26197.30672913  .00000218  00000+0  55271-3 0  9999
2 55815  87.8968 283.9070 0001960  99.9453 260.1898 13.14502195163225
ONEWEB-0654             
1 55816U 23029W   26197.30197036  .00000238  00000+0  60869-3 0  9999
2 55816  87.8967 283.9040 0001800  91.1600 268.9736 13.14502150163243
