{"fetched_at":"2026-07-17T06:37:51.309Z","source":"https://celestrak.org/NORAD/elements/gp.php?GROUP=oneweb&FORMAT=JSON","constellation":"oneweb","records":[{"OBJECT_NAME":"ONEWEB-0564","OBJECT_ID":"2023-029F","EPOCH":"2026-07-16T14:30:52.629120","CLASSIFICATION_TYPE":"U","MEAN_MOTION":13.20772411,"ECCENTRICITY":0.0001748,"INCLINATION":87.9175,"RA_OF_ASC_NODE":268.5895,"ARG_OF_PERICENTER":91.2069,"MEAN_ANOMALY":268.9264,"EPHEMERIS_TYPE":0,"NORAD_CAT_ID":55801,"ELEMENT_SET_NO":999,"REV_AT_EPOCH":16503,"BSTAR":0.00014924,"MEAN_MOTION_DOT":7.4e-7,"MEAN_MOTION_DDOT":0},{"OBJECT_NAME":"ONEWEB-0638","OBJECT_ID":"2023-029G","EPOCH":"2026-07-16T14:56:06.707040","CLASSIFICATION_TYPE":"U","MEAN_MOTION":13.14504227,"ECCENTRICITY":0.0001472,"INCLINATION":87.8958,"RA_OF_ASC_NODE":283.8845,"ARG_OF_PERICENTER":104.3546,"MEAN_ANOMALY":255.7747,"EPHEMERIS_TYPE":0,"NORAD_CAT_ID":55802,"ELEMENT_SET_NO":999,"REV_AT_EPOCH":16326,"BSTAR":0.00062952,"MEAN_MOTION_DOT":0.00000246,"MEAN_MOTION_DDOT":0},{"OBJECT_NAME":"ONEWEB-0639","OBJECT_ID":"2023-029H","EPOCH":"2026-07-16T12:35:28.240224","CLASSIFICATION_TYPE":"U","MEAN_MOTION":13.19726903,"ECCENTRICITY":0.0002689,"INCLINATION":87.9187,"RA_OF_ASC_NODE":299.1339,"ARG_OF_PERICENTER":118.8202,"MEAN_ANOMALY":241.3201,"EPHEMERIS_TYPE":0,"NORAD_CAT_ID":55803,"ELEMENT_SET_NO":999,"REV_AT_EPOCH":16277,"BSTAR":0.0003131,"MEAN_MOTION_DOT":0.00000138,"MEAN_MOTION_DDOT":0},{"OBJECT_NAME":"ONEWEB-0640","OBJECT_ID":"2023-029J","EPOCH":"2026-07-16T16:59:25.583136","CLASSIFICATION_TYPE":"U","MEAN_MOTION":13.14502587,"ECCENTRICITY":0.0001621,"INCLINATION":87.8962,"RA_OF_ASC_NODE":283.8586,"ARG_OF_PERICENTER":117.6894,"MEAN_ANOMALY":242.44,"EPHEMERIS_TYPE":0,"NORAD_CAT_ID":55804,"ELEMENT_SET_NO":999,"REV_AT_EPOCH":16329,"BSTAR":0.00019534,"MEAN_MOTION_DOT":8.5e-7,"MEAN_MOTION_DDOT":0},{"OBJECT_NAME":"ONEWEB-0641","OBJECT_ID":"2023-029K","EPOCH":"2026-07-16T07:01:08.652000","CLASSIFICATION_TYPE":"U","MEAN_MOTION":13.19717686,"ECCENTRICITY":0.0002067,"INCLINATION":87.9194,"RA_OF_ASC_NODE":299.1713,"ARG_OF_PERICENTER":104.0666,"MEAN_ANOMALY":256.0697,"EPHEMERIS_TYPE":0,"NORAD_CAT_ID":55805,"ELEMENT_SET_NO":999,"REV_AT_EPOCH":16275,"BSTAR":-0.001901,"MEAN_MOTION_DOT":-0.00000748,"MEAN_MOTION_DDOT":0},{"OBJECT_NAME":"ONEWEB-0642","OBJECT_ID":"2023-029L","EPOCH":"2026-07-16T06:54:19.241280","CLASSIFICATION_TYPE":"U","MEAN_MOTION":13.19726758,"ECCENTRICITY":0.0002702,"INCLINATION":87.9188,"RA_OF_ASC_NODE":299.1822,"ARG_OF_PERICENTER":112.9207,"MEAN_ANOMALY":247.2211,"EPHEMERIS_TYPE":0,"NORAD_CAT_ID":55806,"ELEMENT_SET_NO":999,"REV_AT_EPOCH":16274,"BSTAR":0.000095744,"MEAN_MOTION_DOT":5.1e-7,"MEAN_MOTION_DDOT":0},{"OBJECT_NAME":"ONEWEB-0643","OBJECT_ID":"2023-029M","EPOCH":"2026-07-16T12:36:49.660128","CLASSIFICATION_TYPE":"U","MEAN_MOTION":13.14502818,"ECCENTRICITY":0.0002691,"INCLINATION":87.8955,"RA_OF_ASC_NODE":283.882,"ARG_OF_PERICENTER":106.0521,"MEAN_ANOMALY":254.0905,"EPHEMERIS_TYPE":0,"NORAD_CAT_ID":55807,"ELEMENT_SET_NO":999,"REV_AT_EPOCH":16324,"BSTAR":0.00035666,"MEAN_MOTION_DOT":0.00000145,"MEAN_MOTION_DDOT":0},{"OBJECT_NAME":"ONEWEB-0644","OBJECT_ID":"2023-029N","EPOCH":"2026-07-16T15:53:22.875648","CLASSIFICATION_TYPE":"U","MEAN_MOTION":13.19725893,"ECCENTRICITY":0.0002309,"INCLINATION":87.9185,"RA_OF_ASC_NODE":299.1087,"ARG_OF_PERICENTER":105.7231,"MEAN_ANOMALY":254.4156,"EPHEMERIS_TYPE":0,"NORAD_CAT_ID":55808,"ELEMENT_SET_NO":999,"REV_AT_EPOCH":16279,"BSTAR":0.0000050823,"MEAN_MOTION_DOT":1.5e-7,"MEAN_MOTION_DDOT":0},{"OBJECT_NAME":"ONEWEB-0645","OBJECT_ID":"2023-029P","EPOCH":"2026-07-16T12:46:52.131648","CLASSIFICATION_TYPE":"U","MEAN_MOTION":13.19726453,"ECCENTRICITY":0.0002087,"INCLINATION":87.9184,"RA_OF_ASC_NODE":299.1309,"ARG_OF_PERICENTER":114.1639,"MEAN_ANOMALY":245.9712,"EPHEMERIS_TYPE":0,"NORAD_CAT_ID":55809,"ELEMENT_SET_NO":999,"REV_AT_EPOCH":16277,"BSTAR":0.00044387,"MEAN_MOTION_DOT":0.00000191,"MEAN_MOTION_DDOT":0},{"OBJECT_NAME":"ONEWEB-0646","OBJECT_ID":"2023-029Q","EPOCH":"2026-07-16T07:44:20.735808","CLASSIFICATION_TYPE":"U","MEAN_MOTION":13.19727215,"ECCENTRICITY":0.000229,"INCLINATION":87.9186,"RA_OF_ASC_NODE":299.1736,"ARG_OF_PERICENTER":104.9453,"MEAN_ANOMALY":255.1933,"EPHEMERIS_TYPE":0,"NORAD_CAT_ID":55810,"ELEMENT_SET_NO":999,"REV_AT_EPOCH":16273,"BSTAR":0.0001514,"MEAN_MOTION_DOT":7.4e-7,"MEAN_MOTION_DDOT":0},{"OBJECT_NAME":"ONEWEB-0648","OBJECT_ID":"2023-029R","EPOCH":"2026-07-16T15:30:21.796704","CLASSIFICATION_TYPE":"U","MEAN_MOTION":13.14503115,"ECCENTRICITY":0.0002434,"INCLINATION":87.8969,"RA_OF_ASC_NODE":283.8345,"ARG_OF_PERICENTER":121.2673,"MEAN_ANOMALY":238.8695,"EPHEMERIS_TYPE":0,"NORAD_CAT_ID":55811,"ELEMENT_SET_NO":999,"REV_AT_EPOCH":16326,"BSTAR":-0.00045579,"MEAN_MOTION_DOT":-0.00000156,"MEAN_MOTION_DDOT":0},{"OBJECT_NAME":"ONEWEB-0649","OBJECT_ID":"2023-029S","EPOCH":"2026-07-16T17:26:36.614688","CLASSIFICATION_TYPE":"U","MEAN_MOTION":13.19726458,"ECCENTRICITY":0.0002077,"INCLINATION":87.9185,"RA_OF_ASC_NODE":299.091,"ARG_OF_PERICENTER":108.4727,"MEAN_ANOMALY":251.6632,"EPHEMERIS_TYPE":0,"NORAD_CAT_ID":55812,"ELEMENT_SET_NO":999,"REV_AT_EPOCH":16282,"BSTAR":-0.00015769,"MEAN_MOTION_DOT":-5e-7,"MEAN_MOTION_DDOT":0},{"OBJECT_NAME":"ONEWEB-0650","OBJECT_ID":"2023-029T","EPOCH":"2026-07-16T06:24:44.236224","CLASSIFICATION_TYPE":"U","MEAN_MOTION":13.19726257,"ECCENTRICITY":0.0002516,"INCLINATION":87.9183,"RA_OF_ASC_NODE":299.1849,"ARG_OF_PERICENTER":110.9683,"MEAN_ANOMALY":249.1719,"EPHEMERIS_TYPE":0,"NORAD_CAT_ID":55813,"ELEMENT_SET_NO":999,"REV_AT_EPOCH":16273,"BSTAR":-0.000085898,"MEAN_MOTION_DOT":-2.1e-7,"MEAN_MOTION_DDOT":0},{"OBJECT_NAME":"ONEWEB-0652","OBJECT_ID":"2023-029U","EPOCH":"2026-07-16T11:23:44.848896","CLASSIFICATION_TYPE":"U","MEAN_MOTION":13.14502402,"ECCENTRICITY":0.0001996,"INCLINATION":87.8969,"RA_OF_ASC_NODE":283.8752,"ARG_OF_PERICENTER":94.9146,"MEAN_ANOMALY":265.2211,"EPHEMERIS_TYPE":0,"NORAD_CAT_ID":55814,"ELEMENT_SET_NO":999,"REV_AT_EPOCH":16321,"BSTAR":0.00036974,"MEAN_MOTION_DOT":0.0000015,"MEAN_MOTION_DDOT":0},{"OBJECT_NAME":"ONEWEB-0653","OBJECT_ID":"2023-029V","EPOCH":"2026-07-16T07:21:41.396832","CLASSIFICATION_TYPE":"U","MEAN_MOTION":13.14502195,"ECCENTRICITY":0.000196,"INCLINATION":87.8968,"RA_OF_ASC_NODE":283.907,"ARG_OF_PERICENTER":99.9453,"MEAN_ANOMALY":260.1898,"EPHEMERIS_TYPE":0,"NORAD_CAT_ID":55815,"ELEMENT_SET_NO":999,"REV_AT_EPOCH":16322,"BSTAR":0.00055271,"MEAN_MOTION_DOT":0.00000218,"MEAN_MOTION_DDOT":0},{"OBJECT_NAME":"ONEWEB-0654","OBJECT_ID":"2023-029W","EPOCH":"2026-07-16T07:14:50.239104","CLASSIFICATION_TYPE":"U","MEAN_MOTION":13.1450215,"ECCENTRICITY":0.00018,"INCLINATION":87.8967,"RA_OF_ASC_NODE":283.904,"ARG_OF_PERICENTER":91.16,"MEAN_ANOMALY":268.9736,"EPHEMERIS_TYPE":0,"NORAD_CAT_ID":55816,"ELEMENT_SET_NO":999,"REV_AT_EPOCH":16324,"BSTAR":0.00060869,"MEAN_MOTION_DOT":0.00000238,"MEAN_MOTION_DDOT":0}]}
